{"type": "FeatureCollection", "features": [ {"type": "Feature", "properties": {"norad_id": 35443, "name": "COSMOS 2251 DEB", "group": "cosmos-2251-debris", "lat": 64.37002139455201, "lon": -0.24538526098993466, "alt_km": 527.190626417123, "timestamp": "2025-12-16T23:36:36.594149+00:00", "meta": {"OBJECT_NAME": "COSMOS 2251 DEB", "OBJECT_ID": "1993-036AKM", "EPOCH": "2025-12-15T08:48:26.743680", "MEAN_MOTION": 14.96932548, "ECCENTRICITY": 0.00731181, "INCLINATION": 73.9871, "RA_OF_ASC_NODE": 326.2641, "ARG_OF_PERICENTER": 107.3149, "MEAN_ANOMALY": 253.6052, "EPHEMERIS_TYPE": 0, "CLASSIFICATION_TYPE": "U", "NORAD_CAT_ID": 35443, "ELEMENT_SET_NO": 999, "REV_AT_EPOCH": 86917, "BSTAR": 0.0020713088, "MEAN_MOTION_DOT": 0.00025182, "MEAN_MOTION_DDOT": 0}, "tle": {"line1": "1 35443U 93036AKM 25349.36697620  .00025182  00000+0  20713-2 0  9994", "line2": "2 35443  73.9871 326.2641 0073118 107.3149 253.6052 14.96932548869170"}}, "geometry": {"type": "Point", "coordinates": [-0.24538526098993466, 64.37002139455201]}}, {"type": "Feature", "properties": {"norad_id": 35445, "name": "COSMOS 2251 DEB", "group": "cosmos-2251-debris", "lat": -62.933884924601095, "lon": 145.98311950988807, "alt_km": 767.0993966051019, "timestamp": "2025-12-16T23:36:36.594159+00:00", "meta": {"OBJECT_NAME": "COSMOS 2251 DEB", "OBJECT_ID": "1993-036AKP", "EPOCH": "2025-12-16T02:43:49.086048", "MEAN_MOTION": 14.59226402, "ECCENTRICITY": 0.01438084, "INCLINATION": 74.0366, "RA_OF_ASC_NODE": 293.5725, "ARG_OF_PERICENTER": 19.7688, "MEAN_ANOMALY": 340.8969, "EPHEMERIS_TYPE": 0, "CLASSIFICATION_TYPE": "U", "NORAD_CAT_ID": 35445, "ELEMENT_SET_NO": 999, "REV_AT_EPOCH": 87378, "BSTAR": 0.0016132687, "MEAN_MOTION_DOT": 8.774e-05, "MEAN_MOTION_DDOT": 0}, "tle": {"line1": "1 35445U 93036AKP 25350.11376257  .00008774  00000+0  16133-2 0  9990", "line2": "2 35445  74.0366 293.5725 0143808  19.7688 340.8969 14.59226402873782"}}, "geometry": {"type": "Point", "coordinates": [145.98311950988807, -62.933884924601095]}}, {"type": "Feature", "properties": {"norad_id": 35446, "name": "COSMOS 2251 DEB", "group": "cosmos-2251-debris", "lat": -34.49320456424249, "lon": 141.49279154470716, "alt_km": 761.478080552878, "timestamp": "2025-12-16T23:36:36.594169+00:00", "meta": {"OBJECT_NAME": "COSMOS 2251 DEB", "OBJECT_ID": "1993-036AKQ", "EPOCH": "2025-12-15T15:15:54.535104", "MEAN_MOTION": 14.54632134, "ECCENTRICITY": 0.00744411, "INCLINATION": 74.047, "RA_OF_ASC_NODE": 312.705, "ARG_OF_PERICENTER": 70.0614, "MEAN_ANOMALY": 290.8548, "EPHEMERIS_TYPE": 0, "CLASSIFICATION_TYPE": "U", "NORAD_CAT_ID": 35446, "ELEMENT_SET_NO": 999, "REV_AT_EPOCH": 88050, "BSTAR": 0.00011676696, "MEAN_MOTION_DOT": 4.88e-06, "MEAN_MOTION_DDOT": 0}, "tle": {"line1": "1 35446U 93036AKQ 25349.63604786  .00000488  00000+0  11677-3 0  9990", "line2": "2 35446  74.0470 312.7050 0074441  70.0614 290.8548 14.54632134880502"}}, "geometry": {"type": "Point", "coordinates": [141.49279154470716, -34.49320456424249]}}, {"type": "Feature", "properties": {"norad_id": 35448, "name": "COSMOS 2251 DEB", "group": "cosmos-2251-debris", "lat": 63.908037384016346, "lon": 117.55143514000284, "alt_km": 713.2527493892158, "timestamp": "2025-12-16T23:36:36.594180+00:00", "meta": {"OBJECT_NAME": "COSMOS 2251 DEB", "OBJECT_ID": "1993-036AKS", "EPOCH": "2025-12-14T16:48:40.813632", "MEAN_MOTION": 14.54286955, "ECCENTRICITY": 0.00119673, "INCLINATION": 73.9048, "RA_OF_ASC_NODE": 85.7736, "ARG_OF_PERICENTER": 268.2948, "MEAN_ANOMALY": 91.6843, "EPHEMERIS_TYPE": 0, "CLASSIFICATION_TYPE": "U", "NORAD_CAT_ID": 35448, "ELEMENT_SET_NO": 999, "REV_AT_EPOCH": 87363, "BSTAR": 0.00094048305, "MEAN_MOTION_DOT": 3.966e-05, "MEAN_MOTION_DDOT": 0}, "tle": {"line1": "1 35448U 93036AKS 25348.70047238  .00003966  00000+0  94048-3 0  9999", "line2": "2 35448  73.9048  85.7736 0011967 268.2948  91.6843 14.54286955873633"}}, "geometry": {"type": "Point", "coordinates": [117.55143514000284, 63.908037384016346]}}, {"type": "Feature", "properties": {"norad_id": 35451, "name": "COSMOS 2251 DEB", "group": "cosmos-2251-debris", "lat": -68.24692149184979, "lon": -40.25310608001774, "alt_km": 461.4313485267312, "timestamp": "2025-12-16T23:36:36.594190+00:00", "meta": {"OBJECT_NAME": "COSMOS 2251 DEB", "OBJECT_ID": "1993-036AKV", "EPOCH": "2025-12-14T17:21:00.017568", "MEAN_MOTION": 15.35844177, "ECCENTRICITY": 0.00411257, "INCLINATION": 73.9322, "RA_OF_ASC_NODE": 98.383, "ARG_OF_PERICENTER": 344.054, "MEAN_ANOMALY": 15.9367, "EPHEMERIS_TYPE": 0, "CLASSIFICATION_TYPE": "U", "NORAD_CAT_ID": 35451, "ELEMENT_SET_NO": 999, "REV_AT_EPOCH": 67436, "BSTAR": 0.0011714729, "MEAN_MOTION_DOT": 0.00042215, "MEAN_MOTION_DDOT": 0}, "tle": {"line1": "1 35451U 93036AKV 25348.72291687  .00042215  00000+0  11715-2 0  9993", "line2": "2 35451  73.9322  98.3830 0041125 344.0540  15.9367 15.35844177674362"}}, "geometry": {"type": "Point", "coordinates": [-40.25310608001774, -68.24692149184979]}}, {"type": "Feature", "properties": {"norad_id": 35453, "name": "COSMOS 2251 DEB", "group": "cosmos-2251-debris", "lat": -51.589504717922914, "lon": -146.25343872917554, "alt_km": 770.5134099876432, "timestamp": "2025-12-16T23:36:36.594200+00:00", "meta": {"OBJECT_NAME": "COSMOS 2251 DEB", "OBJECT_ID": "1993-036AKX", "EPOCH": "2025-12-12T10:00:01.192608", "MEAN_MOTION": 14.37983532, "ECCENTRICITY": 0.00672601, "INCLINATION": 74.0093, "RA_OF_ASC_NODE": 20.9669, "ARG_OF_PERICENTER": 155.0047, "MEAN_ANOMALY": 205.439, "EPHEMERIS_TYPE": 0, "CLASSIFICATION_TYPE": "U", "NORAD_CAT_ID": 35453, "ELEMENT_SET_NO": 999, "REV_AT_EPOCH": 86214, "BSTAR": 0.0010887113, "MEAN_MOTION_DOT": 3.355e-05, "MEAN_MOTION_DDOT": 0}, "tle": {"line1": "1 35453U 93036AKX 25346.41668047  .00003355  00000+0  10887-2 0  9998", "line2": "2 35453  74.0093  20.9669 0067260 155.0047 205.4390 14.37983532862149"}}, "geometry": {"type": "Point", "coordinates": [-146.25343872917554, -51.589504717922914]}}, {"type": "Feature", "properties": {"norad_id": 35455, "name": "COSMOS 2251 DEB", "group": "cosmos-2251-debris", "lat": -71.34126095161803, "lon": 164.84766760406748, "alt_km": 778.4308800965118, "timestamp": "2025-12-16T23:36:36.594210+00:00", "meta": {"OBJECT_NAME": "COSMOS 2251 DEB", "OBJECT_ID": "1993-036AKZ", "EPOCH": "2025-12-15T06:39:23.942880", "MEAN_MOTION": 14.49440801, "ECCENTRICITY": 0.00992528, "INCLINATION": 74.0281, "RA_OF_ASC_NODE": 290.039, "ARG_OF_PERICENTER": 32.9545, "MEAN_ANOMALY": 327.7748, "EPHEMERIS_TYPE": 0, "CLASSIFICATION_TYPE": "U", "NORAD_CAT_ID": 35455, "ELEMENT_SET_NO": 999, "REV_AT_EPOCH": 86580, "BSTAR": 0.0011136115, "MEAN_MOTION_DOT": 4.513e-05, "MEAN_MOTION_DDOT": 0}, "tle": {"line1": "1 35455U 93036AKZ 25349.27736045  .00004513  00000+0  11136-2 0  9996", "line2": "2 35455  74.0281 290.0390 0099252  32.9545 327.7748 14.49440801865804"}}, "geometry": {"type": "Point", "coordinates": [164.84766760406748, -71.34126095161803]}}, {"type": "Feature", "properties": {"norad_id": 35456, "name": "COSMOS 2251 DEB", "group": "cosmos-2251-debris", "lat": -26.1950025936831, "lon": -62.64643600178132, "alt_km": 684.247756572473, "timestamp": "2025-12-16T23:36:36.594220+00:00", "meta": {"OBJECT_NAME": "COSMOS 2251 DEB", "OBJECT_ID": "1993-036ALA", "EPOCH": "2025-12-14T15:06:45.279936", "MEAN_MOTION": 14.69470866, "ECCENTRICITY": 0.00660928, "INCLINATION": 73.9499, "RA_OF_ASC_NODE": 113.7944, "ARG_OF_PERICENTER": 323.212, "MEAN_ANOMALY": 36.4523, "EPHEMERIS_TYPE": 0, "CLASSIFICATION_TYPE": "U", "NORAD_CAT_ID": 35456, "ELEMENT_SET_NO": 999, "REV_AT_EPOCH": 65903, "BSTAR": 0.0014662865, "MEAN_MOTION_DOT": 8.962e-05, "MEAN_MOTION_DDOT": 0}, "tle": {"line1": "1 35456U 93036ALA 25348.62969074  .00008962  00000+0  14663-2 0  9995", "line2": "2 35456  73.9499 113.7944 0066092 323.2120  36.4523 14.69470866659038"}}, "geometry": {"type": "Point", "coordinates": [-62.64643600178132, -26.1950025936831]}}, {"type": "Feature", "properties": {"norad_id": 35459, "name": "COSMOS 2251 DEB", "group": "cosmos-2251-debris", "lat": 70.29398405505658, "lon": -54.50571116337823, "alt_km": 749.1840821833184, "timestamp": "2025-12-16T23:36:36.594230+00:00", "meta": {"OBJECT_NAME": "COSMOS 2251 DEB", "OBJECT_ID": "1993-036ALD", "EPOCH": "2025-12-16T06:26:15.791712", "MEAN_MOTION": 14.37466924, "ECCENTRICITY": 0.00161768, "INCLINATION": 73.8692, "RA_OF_ASC_NODE": 180.7257, "ARG_OF_PERICENTER": 127.3646, "MEAN_ANOMALY": 232.8983, "EPHEMERIS_TYPE": 0, "CLASSIFICATION_TYPE": "U", "NORAD_CAT_ID": 35459, "ELEMENT_SET_NO": 999, "REV_AT_EPOCH": 58412, "BSTAR": 0.00023605665, "MEAN_MOTION_DOT": 6.8e-06, "MEAN_MOTION_DDOT": 0}, "tle": {"line1": "1 35459U 93036ALD 25350.26823833  .00000680  00000+0  23606-3 0  9990", "line2": "2 35459  73.8692 180.7257 0016176 127.3646 232.8983 14.37466924584124"}}, "geometry": {"type": "Point", "coordinates": [-54.50571116337823, 70.29398405505658]}}, {"type": "Feature", "properties": {"norad_id": 35462, "name": "COSMOS 2251 DEB", "group": "cosmos-2251-debris", "lat": 39.97421100789057, "lon": -85.13871957359139, "alt_km": 808.0311106165664, "timestamp": "2025-12-16T23:36:36.594240+00:00", "meta": {"OBJECT_NAME": "COSMOS 2251 DEB", "OBJECT_ID": "1993-036ALG", "EPOCH": "2025-12-15T12:08:22.276032", "MEAN_MOTION": 14.29319782, "ECCENTRICITY": 0.00867718, "INCLINATION": 74.0367, "RA_OF_ASC_NODE": 263.6601, "ARG_OF_PERICENTER": 298.2214, "MEAN_ANOMALY": 61.0193, "EPHEMERIS_TYPE": 0, "CLASSIFICATION_TYPE": "U", "NORAD_CAT_ID": 35462, "ELEMENT_SET_NO": 999, "REV_AT_EPOCH": 66420, "BSTAR": 0.0011070348, "MEAN_MOTION_DOT": 2.91e-05, "MEAN_MOTION_DDOT": 0}, "tle": {"line1": "1 35462U 93036ALG 25349.50581338  .00002910  00000+0  11070-2 0  9999", "line2": "2 35462  74.0367 263.6601 0086771 298.2214  61.0193 14.29319782664204"}}, "geometry": {"type": "Point", "coordinates": [-85.13871957359139, 39.97421100789057]}}]}